start=new Date('2022-10-30T00:00:00.000Z').valueOf();
sats=[{"TLE_LINE2":"2 51786  53.2165  97.3213 0001780  52.8531 307.2623 15.08849573 37043","MEAN_ANOMALY":"307.2623","EPOCH":"2022-10-29T16:36:16.351488","APOAPSIS":"540.948","GP_ID":"216478545","ELEMENT_SET_NO":"999","RA_OF_ASC_NODE":"97.3213","SEMIMAJOR_AXIS":"6917.851","EPHEMERIS_TYPE":"0","SITE":"AFWTR","OBJECT_ID":"2022-017U","BSTAR":"0.00013671000000","PERIAPSIS":"538.485","RCS_SIZE":"LARGE","INCLINATION":"53.2165","CLASSIFICATION_TYPE":"U","TIME_SYSTEM":"UTC","MEAN_MOTION_DDOT":"0.0000000000000","MEAN_MOTION_DOT":"0.00001889","OBJECT_NAME":"STARLINK-3638","DECAY_DATE":null,"COUNTRY_CODE":"US","ECCENTRICITY":"0.00017800","TLE_LINE1":"1 51786U 22017U   22302.69185592  .00001889  00000-0  13671-3 0  9990","CENTER_NAME":"EARTH","ARG_OF_PERICENTER":"52.8531","PERIOD":"95.437","NORAD_CAT_ID":"51786","REV_AT_EPOCH":"3704","MEAN_ELEMENT_THEORY":"SGP4","LAUNCH_DATE":"2022-02-25","MEAN_MOTION":"15.08849573","REF_FRAME":"TEME","FILE":"3637863","OBJECT_TYPE":"PAYLOAD"},{"PERIOD":"95.437","ARG_OF_PERICENTER":"51.4610","CENTER_NAME":"EARTH","MEAN_ELEMENT_THEORY":"SGP4","REV_AT_EPOCH":"3706","NORAD_CAT_ID":"51787","REF_FRAME":"TEME","MEAN_MOTION":"15.08851526","LAUNCH_DATE":"2022-02-25","OBJECT_TYPE":"PAYLOAD","FILE":"3637863","GP_ID":"216477314","APOAPSIS":"541.204","EPOCH":"2022-10-29T20:08:15.042336","MEAN_ANOMALY":"308.6575","TLE_LINE2":"2 51787  53.2174  96.6650 0002160  51.4610 308.6575 15.08851526 37061","SITE":"AFWTR","EPHEMERIS_TYPE":"0","SEMIMAJOR_AXIS":"6917.845","RA_OF_ASC_NODE":"96.6650","ELEMENT_SET_NO":"999","TIME_SYSTEM":"UTC","CLASSIFICATION_TYPE":"U","INCLINATION":"53.2174","RCS_SIZE":"LARGE","PERIAPSIS":"538.216","BSTAR":"0.00003847500000","OBJECT_ID":"2022-017V","TLE_LINE1":"1 51787U 22017V   22302.83906299  .00000324  00000-0  38475-4 0  9995","ECCENTRICITY":"0.00021600","DECAY_DATE":null,"COUNTRY_CODE":"US","OBJECT_NAME":"STARLINK-3619","MEAN_MOTION_DOT":"0.00000324","MEAN_MOTION_DDOT":"0.0000000000000"},{"FILE":"3637863","OBJECT_TYPE":"PAYLOAD","REF_FRAME":"TEME","LAUNCH_DATE":"2022-02-25","MEAN_MOTION":"15.08843862","MEAN_ELEMENT_THEORY":"SGP4","NORAD_CAT_ID":"51788","REV_AT_EPOCH":"3870","PERIOD":"95.437","CENTER_NAME":"EARTH","ARG_OF_PERICENTER":"51.8495","DECAY_DATE":null,"COUNTRY_CODE":"US","ECCENTRICITY":"0.00020860","TLE_LINE1":"1 51788U 22017W   22302.81332422 -.00000253  00000-0  21877-5 0  9996","MEAN_MOTION_DDOT":"0.0000000000000","MEAN_MOTION_DOT":"-0.00000253","OBJECT_NAME":"STARLINK-3641","CLASSIFICATION_TYPE":"U","TIME_SYSTEM":"UTC","OBJECT_ID":"2022-017W","BSTAR":"0.00000218770000","PERIAPSIS":"538.291","RCS_SIZE":"LARGE","INCLINATION":"53.2161","EPHEMERIS_TYPE":"0","SITE":"AFWTR","ELEMENT_SET_NO":"999","SEMIMAJOR_AXIS":"6917.869","RA_OF_ASC_NODE":"96.7922","GP_ID":"216477564","TLE_LINE2":"2 51788  53.2161  96.7922 0002086  51.8495 308.2685 15.08843862 38707","MEAN_ANOMALY":"308.2685","EPOCH":"2022-10-29T19:31:11.212608","APOAPSIS":"541.177"},{"PERIOD":"95.437","CENTER_NAME":"EARTH","ARG_OF_PERICENTER":"48.6341","MEAN_ELEMENT_THEORY":"SGP4","NORAD_CAT_ID":"51789","REV_AT_EPOCH":"3704","REF_FRAME":"TEME","MEAN_MOTION":"15.08848987","LAUNCH_DATE":"2022-02-25","FILE":"3637863","OBJECT_TYPE":"PAYLOAD","GP_ID":"216478816","EPOCH":"2022-10-29T16:41:34.469376","MEAN_ANOMALY":"311.4821","TLE_LINE2":"2 51789  53.2177  97.3100 0001976  48.6341 311.4821 15.08848987 37048","APOAPSIS":"541.085","EPHEMERIS_TYPE":"0","SITE":"AFWTR","ELEMENT_SET_NO":"999","SEMIMAJOR_AXIS":"6917.853","RA_OF_ASC_NODE":"97.3100","CLASSIFICATION_TYPE":"U","TIME_SYSTEM":"UTC","PERIAPSIS":"538.351","BSTAR":"0.00010738000000","OBJECT_ID":"2022-017X","INCLINATION":"53.2177","RCS_SIZE":"LARGE","COUNTRY_CODE":"US","DECAY_DATE":null,"TLE_LINE1":"1 51789U 22017X   22302.69553784  .00001422  00000-0  10738-3 0  9999","ECCENTRICITY":"0.00019760","MEAN_MOTION_DDOT":"0.0000000000000","OBJECT_NAME":"STARLINK-3639","MEAN_MOTION_DOT":"0.00001422"},{"RA_OF_ASC_NODE":"98.5948","SEMIMAJOR_AXIS":"6917.853","ELEMENT_SET_NO":"999","SITE":"AFWTR","EPHEMERIS_TYPE":"0","APOAPSIS":"540.923","EPOCH":"2022-10-29T09:53:32.978400","MEAN_ANOMALY":"301.9311","TLE_LINE2":"2 51790  53.2177  98.5948 0001741  58.1851 301.9311 15.08848799 38696","GP_ID":"216454587","OBJECT_NAME":"STARLINK-3631","MEAN_MOTION_DOT":"0.00000663","MEAN_MOTION_DDOT":"0.0000000000000","TLE_LINE1":"1 51790U 22017Y   22302.41218725  .00000663  00000-0  59717-4 0  9991","ECCENTRICITY":"0.00017410","COUNTRY_CODE":"US","DECAY_DATE":null,"INCLINATION":"53.2177","RCS_SIZE":"LARGE","PERIAPSIS":"538.514","BSTAR":"0.00005971700000","OBJECT_ID":"2022-017Y","TIME_SYSTEM":"UTC","CLASSIFICATION_TYPE":"U","REV_AT_EPOCH":"3869","NORAD_CAT_ID":"51790","MEAN_ELEMENT_THEORY":"SGP4","ARG_OF_PERICENTER":"58.1851","CENTER_NAME":"EARTH","PERIOD":"95.437","OBJECT_TYPE":"PAYLOAD","FILE":"3637851","MEAN_MOTION":"15.08848799","LAUNCH_DATE":"2022-02-25","REF_FRAME":"TEME"},{"REF_FRAME":"TEME","MEAN_MOTION":"15.08854311","LAUNCH_DATE":"2022-02-25","OBJECT_TYPE":"PAYLOAD","FILE":"3637863","PERIOD":"95.437","ARG_OF_PERICENTER":"51.1163","CENTER_NAME":"EARTH","MEAN_ELEMENT_THEORY":"SGP4","REV_AT_EPOCH":"3867","NORAD_CAT_ID":"51791","TIME_SYSTEM":"UTC","CLASSIFICATION_TYPE":"U","INCLINATION":"53.2166","RCS_SIZE":"LARGE","PERIAPSIS":"538.441","OBJECT_ID":"2022-017Z","BSTAR":"0.00024554000000","TLE_LINE1":"1 51791U 22017Z   22302.62193954  .00003623  00000-0  24554-3 0  9990","ECCENTRICITY":"0.00018220","DECAY_DATE":null,"COUNTRY_CODE":"US","OBJECT_NAME":"STARLINK-3602","MEAN_MOTION_DOT":"0.00003623","MEAN_MOTION_DDOT":"0.0000000000000","GP_ID":"216477815","APOAPSIS":"540.962","MEAN_ANOMALY":"308.9992","EPOCH":"2022-10-29T14:55:35.576256","TLE_LINE2":"2 51791  53.2166  97.6376 0001822  51.1163 308.9992 15.08854311 38676","SITE":"AFWTR","EPHEMERIS_TYPE":"0","SEMIMAJOR_AXIS":"6917.837","RA_OF_ASC_NODE":"97.6376","ELEMENT_SET_NO":"999"},{"SITE":"AFWTR","EPHEMERIS_TYPE":"0","SEMIMAJOR_AXIS":"6917.885","RA_OF_ASC_NODE":"97.1386","ELEMENT_SET_NO":"999","GP_ID":"216478065","APOAPSIS":"540.592","EPOCH":"2022-10-29T17:39:52.176384","MEAN_ANOMALY":"280.5590","TLE_LINE2":"2 51792  53.2158  97.1386 0001217  79.5539 280.5590 15.08838601 38744","TLE_LINE1":"1 51792U 22017AA  22302.73602056 -.00000538  00000-0 -15733-4 0  9995","ECCENTRICITY":"0.00012170","COUNTRY_CODE":"US","DECAY_DATE":null,"OBJECT_NAME":"STARLINK-3626","MEAN_MOTION_DOT":"-0.00000538","MEAN_MOTION_DDOT":"0.0000000000000","TIME_SYSTEM":"UTC","CLASSIFICATION_TYPE":"U","INCLINATION":"53.2158","RCS_SIZE":"LARGE","PERIAPSIS":"538.908","OBJECT_ID":"2022-017AA","BSTAR":"-0.00001573300000","MEAN_ELEMENT_THEORY":"SGP4","REV_AT_EPOCH":"3874","NORAD_CAT_ID":"51792","PERIOD":"95.438","ARG_OF_PERICENTER":"79.5539","CENTER_NAME":"EARTH","OBJECT_TYPE":"PAYLOAD","FILE":"3637863","REF_FRAME":"TEME","MEAN_MOTION":"15.08838601","LAUNCH_DATE":"2022-02-25"},{"REV_AT_EPOCH":"3875","NORAD_CAT_ID":"51793","MEAN_ELEMENT_THEORY":"SGP4","ARG_OF_PERICENTER":"49.3012","CENTER_NAME":"EARTH","PERIOD":"95.437","OBJECT_TYPE":"PAYLOAD","FILE":"3637863","MEAN_MOTION":"15.08849572","LAUNCH_DATE":"2022-02-25","REF_FRAME":"TEME","SEMIMAJOR_AXIS":"6917.851","RA_OF_ASC_NODE":"96.7784","ELEMENT_SET_NO":"999","SITE":"AFWTR","EPHEMERIS_TYPE":"0","APOAPSIS":"541.196","EPOCH":"2022-10-29T19:36:27.201600","MEAN_ANOMALY":"310.8166","TLE_LINE2":"2 51793  53.2187  96.7784 0002139  49.3012 310.8166 15.08849572 38755","GP_ID":"216478316","OBJECT_NAME":"STARLINK-3633","MEAN_MOTION_DOT":"0.00000692","MEAN_MOTION_DDOT":"0.0000000000000","TLE_LINE1":"1 51793U 22017AB  22302.81698150  .00000692  00000-0  61597-4 0  9993","ECCENTRICITY":"0.00021390","COUNTRY_CODE":"US","DECAY_DATE":null,"INCLINATION":"53.2187","RCS_SIZE":"LARGE","PERIAPSIS":"538.236","BSTAR":"0.00006159700000","OBJECT_ID":"2022-017AB","TIME_SYSTEM":"UTC","CLASSIFICATION_TYPE":"U"},{"FILE":"3637863","OBJECT_TYPE":"PAYLOAD","REF_FRAME":"TEME","LAUNCH_DATE":"2022-02-25","MEAN_MOTION":"15.08842982","MEAN_ELEMENT_THEORY":"SGP4","NORAD_CAT_ID":"51794","REV_AT_EPOCH":"3869","PERIOD":"95.437","CENTER_NAME":"EARTH","ARG_OF_PERICENTER":"56.6418","DECAY_DATE":null,"COUNTRY_CODE":"US","ECCENTRICITY":"0.00016320","TLE_LINE1":"1 51794U 22017AC  22302.72867977  .00000048  00000-0  21129-4 0  9991","MEAN_MOTION_DDOT":"0.0000000000000","MEAN_MOTION_DOT":"0.00000048","OBJECT_NAME":"STARLINK-3573","CLASSIFICATION_TYPE":"U","TIME_SYSTEM":"UTC","BSTAR":"0.00002112900000","OBJECT_ID":"2022-017AC","PERIAPSIS":"538.607","RCS_SIZE":"LARGE","INCLINATION":"53.2155","EPHEMERIS_TYPE":"0","SITE":"AFWTR","ELEMENT_SET_NO":"999","SEMIMAJOR_AXIS":"6917.871","RA_OF_ASC_NODE":"97.1688","GP_ID":"216478546","TLE_LINE2":"2 51794  53.2155  97.1688 0001632  56.6418 303.4730 15.08842982 38693","EPOCH":"2022-10-29T17:29:17.932128","MEAN_ANOMALY":"303.4730","APOAPSIS":"540.865"},{"REF_FRAME":"TEME","MEAN_MOTION":"15.08843330","LAUNCH_DATE":"2022-02-25","FILE":"3637851","OBJECT_TYPE":"PAYLOAD","PERIOD":"95.437","CENTER_NAME":"EARTH","ARG_OF_PERICENTER":"63.5783","MEAN_ELEMENT_THEORY":"SGP4","NORAD_CAT_ID":"51795","REV_AT_EPOCH":"3872","CLASSIFICATION_TYPE":"U","TIME_SYSTEM":"UTC","PERIAPSIS":"538.603","BSTAR":"0.00005552100000","OBJECT_ID":"2022-017AD","INCLINATION":"53.2151","RCS_SIZE":"LARGE","COUNTRY_CODE":"US","DECAY_DATE":null,"TLE_LINE1":"1 51795U 22017AD  22302.93106339  .00000596  00000-0  55521-4 0  9994","ECCENTRICITY":"0.00016360","MEAN_MOTION_DDOT":"0.0000000000000","OBJECT_NAME":"STARLINK-3586","MEAN_MOTION_DOT":"0.00000596","GP_ID":"216454588","MEAN_ANOMALY":"296.5377","EPOCH":"2022-10-29T22:20:43.876896","TLE_LINE2":"2 51795  53.2151  96.2604 0001636  63.5783 296.5377 15.08843330 38725","APOAPSIS":"540.867","EPHEMERIS_TYPE":"0","SITE":"AFWTR","ELEMENT_SET_NO":"999","RA_OF_ASC_NODE":"96.2604","SEMIMAJOR_AXIS":"6917.870"}];
